STARLINK-1955           
1 47556U 21009J   26066.16670139  .00587333  15421-3  14420-2 0  9990
2 47556  53.0341 338.0262 0003308 161.8057 326.8976 15.95533579  6022
STARLINK-2022           
1 47643U 21012Z   26066.16670139  .00476762  99598-4  13848-2 0  9995
2 47643  53.0128 350.5237 0003019 137.4814 322.4106 15.92385160  6016
WILDTRACKCUBE-SIMBA     
1 47941U 21022K   26065.29297773  .08759150  26401-5  74904-3 0  9997
2 47941  97.3721 347.4784 0005874 201.7073 158.3978 16.39544551275308
JILIN-1 GAOFEN 3D02     
1 49005U 21061C   26065.62880701  .02509897  23835-5  10367-2 0  9994
2 49005  97.2870 146.4783 0006843 264.2219  95.8292 16.23196194260323
LYNK TOWER 1            
1 52162U 22033F   26066.07396219  .00942320  57199-3  74499-3 0  9993
2 52162  97.2543 171.5804 0006154 218.6141 141.4706 16.14716082220826
STARLINK-3767           
1 52376U 22045AX  26065.74770951  .01689011  19593-2  22895-2 0  9998
2 52376  53.2112 187.1994 0001603 166.3266 193.7811 16.06222868215692
NUSAT-28 (ALICE LEE)    
1 52747U 22057R   26066.14581874  .00679736  21079-3  13630-2 0  9994
2 52747  97.5018 215.7749 0007967 286.2384  73.8017 15.99718795211645
STARLINK-4038           
1 53150U 22083U   26066.16670139  .00324411  51507-4  90204-3 0  9997
2 53150  53.2041 133.0437 0009080   2.2274 222.6829 15.93204938  6030
CZ-6A DEB               
1 54572U 22151LY  26065.20091252  .06542974  64020-1  20120-1 0  9990
2 54572  98.5906 155.2350 0016456 295.8048  64.1526 15.95966983176336
STARLINK-5092           
1 55408U 23014T   26066.16670139  .00925484  37998-3  25260-2 0  9993
2 55408  69.9989  59.1193 0003515 259.6256 232.6906 15.93973412  5884
STARLINK-6201           
1 56486U 23064AQ  26066.16571942  .01328653  10144-2  21907-2 0  9990
2 56486  69.9952 120.5924 0004463 280.6940  79.3770 16.03162436155602
OBJECT H                
1 57011U 23085H   26066.11731029  .00698278  20523-3  19237-2 0  9995
2 57011  97.4632 192.5117 0006765 294.4268  65.6300 15.93905655152165
SHIYAN-25 (SY-25)       
1 57047U 23087A   26065.84186692 -.00018184  20715-5 -32542-4 0  9990
2 57047  96.7187 126.9399 0012995 245.2365 114.7563 16.00933100158436
STARLINK-30210          
1 57292U 23096C   26065.94513889  .01351151  11840-2  13715-2 0  9993
2 57292  42.9608 152.5540 0021831  23.1556 308.2824 16.09716929148061
