[{"OBJECT_NAME":"STARLINK-1955","OBJECT_ID":"2021-009J","EPOCH":"2026-03-07T04:00:03.000096","MEAN_MOTION":15.95533579,"ECCENTRICITY":0.0003308,"INCLINATION":53.0341,"RA_OF_ASC_NODE":338.0262,"ARG_OF_PERICENTER":161.8057,"MEAN_ANOMALY":326.8976,"EPHEMERIS_TYPE":0,"CLASSIFICATION_TYPE":"U","NORAD_CAT_ID":47556,"ELEMENT_SET_NO":999,"REV_AT_EPOCH":602,"BSTAR":0.001442,"MEAN_MOTION_DOT":0.00587333,"MEAN_MOTION_DDOT":0.00015421},{"OBJECT_NAME":"STARLINK-2022","OBJECT_ID":"2021-012Z","EPOCH":"2026-03-07T04:00:03.000096","MEAN_MOTION":15.9238516,"ECCENTRICITY":0.0003019,"INCLINATION":53.0128,"RA_OF_ASC_NODE":350.5237,"ARG_OF_PERICENTER":137.4814,"MEAN_ANOMALY":322.4106,"EPHEMERIS_TYPE":0,"CLASSIFICATION_TYPE":"U","NORAD_CAT_ID":47643,"ELEMENT_SET_NO":999,"REV_AT_EPOCH":601,"BSTAR":0.0013848,"MEAN_MOTION_DOT":0.00476762,"MEAN_MOTION_DDOT":9.9598e-5},{"OBJECT_NAME":"WILDTRACKCUBE-SIMBA","OBJECT_ID":"2021-022K","EPOCH":"2026-03-06T07:01:53.275872","MEAN_MOTION":16.39544551,"ECCENTRICITY":0.0005874,"INCLINATION":97.3721,"RA_OF_ASC_NODE":347.4784,"ARG_OF_PERICENTER":201.7073,"MEAN_ANOMALY":158.3978,"EPHEMERIS_TYPE":0,"CLASSIFICATION_TYPE":"U","NORAD_CAT_ID":47941,"ELEMENT_SET_NO":999,"REV_AT_EPOCH":27530,"BSTAR":0.00074904122,"MEAN_MOTION_DOT":0.0875915,"MEAN_MOTION_DDOT":2.64013e-6},{"OBJECT_NAME":"JILIN-1 GAOFEN 3D02","OBJECT_ID":"2021-061C","EPOCH":"2026-03-06T15:05:28.925664","MEAN_MOTION":16.23196194,"ECCENTRICITY":0.00068439,"INCLINATION":97.287,"RA_OF_ASC_NODE":146.4783,"ARG_OF_PERICENTER":264.2219,"MEAN_ANOMALY":95.8292,"EPHEMERIS_TYPE":0,"CLASSIFICATION_TYPE":"U","NORAD_CAT_ID":49005,"ELEMENT_SET_NO":999,"REV_AT_EPOCH":26032,"BSTAR":0.0010367386,"MEAN_MOTION_DOT":0.02509897,"MEAN_MOTION_DDOT":2.383541e-6},{"OBJECT_NAME":"LYNK TOWER 1","OBJECT_ID":"2022-033F","EPOCH":"2026-03-07T01:46:30.333216","MEAN_MOTION":16.14716082,"ECCENTRICITY":0.0006154,"INCLINATION":97.2543,"RA_OF_ASC_NODE":171.5804,"ARG_OF_PERICENTER":218.6141,"MEAN_ANOMALY":141.4706,"EPHEMERIS_TYPE":0,"CLASSIFICATION_TYPE":"U","NORAD_CAT_ID":52162,"ELEMENT_SET_NO":999,"REV_AT_EPOCH":22082,"BSTAR":0.00074499,"MEAN_MOTION_DOT":0.0094232,"MEAN_MOTION_DDOT":0.00057199},{"OBJECT_NAME":"STARLINK-3767","OBJECT_ID":"2022-045AX","EPOCH":"2026-03-06T17:56:42.101664","MEAN_MOTION":16.06222868,"ECCENTRICITY":0.0001603,"INCLINATION":53.2112,"RA_OF_ASC_NODE":187.1994,"ARG_OF_PERICENTER":166.3266,"MEAN_ANOMALY":193.7811,"EPHEMERIS_TYPE":0,"CLASSIFICATION_TYPE":"U","NORAD_CAT_ID":52376,"ELEMENT_SET_NO":999,"REV_AT_EPOCH":21569,"BSTAR":0.0022895,"MEAN_MOTION_DOT":0.01689011,"MEAN_MOTION_DDOT":0.0019593},{"OBJECT_NAME":"NUSAT-28 (ALICE LEE)","OBJECT_ID":"2022-057R","EPOCH":"2026-03-07T03:29:58.739136","MEAN_MOTION":15.99718795,"ECCENTRICITY":0.0007967,"INCLINATION":97.5018,"RA_OF_ASC_NODE":215.7749,"ARG_OF_PERICENTER":286.2384,"MEAN_ANOMALY":73.8017,"EPHEMERIS_TYPE":0,"CLASSIFICATION_TYPE":"U","NORAD_CAT_ID":52747,"ELEMENT_SET_NO":999,"REV_AT_EPOCH":21164,"BSTAR":0.001363,"MEAN_MOTION_DOT":0.00679736,"MEAN_MOTION_DDOT":0.00021079},{"OBJECT_NAME":"STARLINK-4038","OBJECT_ID":"2022-083U","EPOCH":"2026-03-07T04:00:03.000096","MEAN_MOTION":15.93204938,"ECCENTRICITY":0.000908,"INCLINATION":53.2041,"RA_OF_ASC_NODE":133.0437,"ARG_OF_PERICENTER":2.2274,"MEAN_ANOMALY":222.6829,"EPHEMERIS_TYPE":0,"CLASSIFICATION_TYPE":"U","NORAD_CAT_ID":53150,"ELEMENT_SET_NO":999,"REV_AT_EPOCH":603,"BSTAR":0.00090204,"MEAN_MOTION_DOT":0.00324411,"MEAN_MOTION_DDOT":5.1507e-5},{"OBJECT_NAME":"CZ-6A DEB","OBJECT_ID":"2022-151LY","EPOCH":"2026-03-06T04:49:18.841728","MEAN_MOTION":15.95966983,"ECCENTRICITY":0.00164563,"INCLINATION":98.5906,"RA_OF_ASC_NODE":155.235,"ARG_OF_PERICENTER":295.8048,"MEAN_ANOMALY":64.1526,"EPHEMERIS_TYPE":0,"CLASSIFICATION_TYPE":"U","NORAD_CAT_ID":54572,"ELEMENT_SET_NO":999,"REV_AT_EPOCH":17633,"BSTAR":0.02011976,"MEAN_MOTION_DOT":0.06542974,"MEAN_MOTION_DDOT":0.064020342},{"OBJECT_NAME":"STARLINK-5092","OBJECT_ID":"2023-014T","EPOCH":"2026-03-07T04:00:03.000096","MEAN_MOTION":15.93973412,"ECCENTRICITY":0.0003515,"INCLINATION":69.9989,"RA_OF_ASC_NODE":59.1193,"ARG_OF_PERICENTER":259.6256,"MEAN_ANOMALY":232.6906,"EPHEMERIS_TYPE":0,"CLASSIFICATION_TYPE":"U","NORAD_CAT_ID":55408,"ELEMENT_SET_NO":999,"REV_AT_EPOCH":588,"BSTAR":0.002526,"MEAN_MOTION_DOT":0.00925484,"MEAN_MOTION_DDOT":0.00037998},{"OBJECT_NAME":"STARLINK-6201","OBJECT_ID":"2023-064AQ","EPOCH":"2026-03-07T03:58:38.157888","MEAN_MOTION":16.03162436,"ECCENTRICITY":0.0004463,"INCLINATION":69.9952,"RA_OF_ASC_NODE":120.5924,"ARG_OF_PERICENTER":280.694,"MEAN_ANOMALY":79.377,"EPHEMERIS_TYPE":0,"CLASSIFICATION_TYPE":"U","NORAD_CAT_ID":56486,"ELEMENT_SET_NO":999,"REV_AT_EPOCH":15560,"BSTAR":0.0021907,"MEAN_MOTION_DOT":0.01328653,"MEAN_MOTION_DDOT":0.0010144},{"OBJECT_NAME":"OBJECT H","OBJECT_ID":"2023-085H","EPOCH":"2026-03-07T02:48:55.609056","MEAN_MOTION":15.93905655,"ECCENTRICITY":0.0006765,"INCLINATION":97.4632,"RA_OF_ASC_NODE":192.5117,"ARG_OF_PERICENTER":294.4268,"MEAN_ANOMALY":65.63,"EPHEMERIS_TYPE":0,"CLASSIFICATION_TYPE":"U","NORAD_CAT_ID":57011,"ELEMENT_SET_NO":999,"REV_AT_EPOCH":15216,"BSTAR":0.0019237,"MEAN_MOTION_DOT":0.00698278,"MEAN_MOTION_DDOT":0.00020523},{"OBJECT_NAME":"SHIYAN-25 (SY-25)","OBJECT_ID":"2023-087A","EPOCH":"2026-03-06T20:12:17.301888","MEAN_MOTION":16.009331,"ECCENTRICITY":0.0012995,"INCLINATION":96.7187,"RA_OF_ASC_NODE":126.9399,"ARG_OF_PERICENTER":245.2365,"MEAN_ANOMALY":114.7563,"EPHEMERIS_TYPE":0,"CLASSIFICATION_TYPE":"U","NORAD_CAT_ID":57047,"ELEMENT_SET_NO":999,"REV_AT_EPOCH":15843,"BSTAR":-3.2542e-5,"MEAN_MOTION_DOT":-0.00018184,"MEAN_MOTION_DDOT":2.0715e-6},{"OBJECT_NAME":"STARLINK-30210","OBJECT_ID":"2023-096C","EPOCH":"2026-03-06T22:41:00.000096","MEAN_MOTION":16.09716929,"ECCENTRICITY":0.0021831,"INCLINATION":42.9608,"RA_OF_ASC_NODE":152.554,"ARG_OF_PERICENTER":23.1556,"MEAN_ANOMALY":308.2824,"EPHEMERIS_TYPE":0,"CLASSIFICATION_TYPE":"U","NORAD_CAT_ID":57292,"ELEMENT_SET_NO":999,"REV_AT_EPOCH":14806,"BSTAR":0.0013715,"MEAN_MOTION_DOT":0.01351151,"MEAN_MOTION_DDOT":0.001184}]
